[{"OBJECT_NAME":"MISRSAT-2","OBJECT_ID":"2023-187B","EPOCH":"2026-03-09T22:47:39.416064","MEAN_MOTION":14.82973082,"ECCENTRICITY":0.00124357,"INCLINATION":97.9302,"RA_OF_ASC_NODE":151.6612,"ARG_OF_PERICENTER":109.0533,"MEAN_ANOMALY":251.2029,"EPHEMERIS_TYPE":0,"CLASSIFICATION_TYPE":"U","NORAD_CAT_ID":58497,"ELEMENT_SET_NO":999,"REV_AT_EPOCH":12233,"BSTAR":0.00025174418,"MEAN_MOTION_DOT":1.993e-5,"MEAN_MOTION_DDOT":0},{"OBJECT_NAME":"KUIPER-00090","OBJECT_ID":"2025-151V","EPOCH":"2026-03-09T21:15:17.323488","MEAN_MOTION":14.7992851,"ECCENTRICITY":6.399e-5,"INCLINATION":51.8979,"RA_OF_ASC_NODE":277.2553,"ARG_OF_PERICENTER":106.9589,"MEAN_ANOMALY":253.1443,"EPHEMERIS_TYPE":0,"CLASSIFICATION_TYPE":"U","NORAD_CAT_ID":64835,"ELEMENT_SET_NO":999,"REV_AT_EPOCH":3564,"BSTAR":9.343077e-6,"MEAN_MOTION_DOT":-1.5e-6,"MEAN_MOTION_DDOT":0}]
